{
  "type": "FeatureCollection",
  "features": [
    {
      "type": "Feature",
      "properties": {
        "norad_id": 36828,
        "name": "BEIDOU-2 IGSO-1 (C06)",
        "group": "beidou",
        "lat": -50.80065901541571,
        "lon": 102.63165703466096,
        "alt_km": 35720.5619570421,
        "timestamp": "2025-12-08T17:43:05.195658+00:00",
        "meta_object_name": "BEIDOU-2 IGSO-1 (C06)",
        "meta_object_id": "2010-036A",
        "meta_epoch": "2025-12-07T22:42:27.537984",
        "meta_mean_motion": 1.00277452,
        "meta_eccentricity": 0.00512392,
        "meta_inclination": 54.2867,
        "meta_ra_of_asc_node": 164.691,
        "meta_arg_of_pericenter": 215.8688,
        "meta_mean_anomaly": 144.8467,
        "meta_ephemeris_type": 0,
        "meta_classification_type": "U",
        "meta_norad_cat_id": 36828,
        "meta_element_set_no": 999,
        "meta_rev_at_epoch": 5618,
        "meta_bstar": 0,
        "meta_mean_motion_dot": -6.8e-07,
        "meta_mean_motion_ddot": 0,
        "tle_line1": "1 36828U 10036A   25341.94615206 -.00000068  00000+0  00000+0 0  9998",
        "tle_line2": "2 36828  54.2867 164.6910 0051239 215.8688 144.8467  1.00277452 56188"
      },
      "geometry": {
        "type": "Point",
        "coordinates": [
          102.63165703466096,
          -50.80065901541571
        ]
      }
    },
    {
      "type": "Feature",
      "properties": {
        "norad_id": 37210,
        "name": "BEIDOU-2 G4 (C04)",
        "group": "beidou",
        "lat": 3.0532829855562738,
        "lon": 143.45035927902504,
        "alt_km": 35806.53258671326,
        "timestamp": "2025-12-08T17:43:05.195682+00:00",
        "meta_object_name": "BEIDOU-2 G4 (C04)",
        "meta_object_id": "2010-057A",
        "meta_epoch": "2025-12-08T05:48:19.884384",
        "meta_mean_motion": 1.00271476,
        "meta_eccentricity": 0.00109061,
        "meta_inclination": 3.1733,
        "meta_ra_of_asc_node": 69.9493,
        "meta_arg_of_pericenter": 190.2714,
        "meta_mean_anomaly": 64.1886,
        "meta_ephemeris_type": 0,
        "meta_classification_type": "U",
        "meta_norad_cat_id": 37210,
        "meta_element_set_no": 999,
        "meta_rev_at_epoch": 5537,
        "meta_bstar": 0,
        "meta_mean_motion_dot": -1.1e-06,
        "meta_mean_motion_ddot": 0,
        "tle_line1": "1 37210U 10057A   25342.24189681 -.00000110  00000+0  00000+0 0  9992",
        "tle_line2": "2 37210   3.1733  69.9493 0010906 190.2714  64.1886  1.00271476 55373"
      },
      "geometry": {
        "type": "Point",
        "coordinates": [
          143.45035927902504,
          3.0532829855562738
        ]
      }
    },
    {
      "type": "Feature",
      "properties": {
        "norad_id": 37256,
        "name": "BEIDOU-2 IGSO-2 (C07)",
        "group": "beidou",
        "lat": 2.665520672008868,
        "lon": 91.76796671785041,
        "alt_km": 35621.95906107421,
        "timestamp": "2025-12-08T17:43:05.195698+00:00",
        "meta_object_name": "BEIDOU-2 IGSO-2 (C07)",
        "meta_object_id": "2010-068A",
        "meta_epoch": "2025-12-03T17:22:36.030432",
        "meta_mean_motion": 1.0028871,
        "meta_eccentricity": 0.00492335,
        "meta_inclination": 47.9043,
        "meta_ra_of_asc_node": 274.2613,
        "meta_arg_of_pericenter": 216.1442,
        "meta_mean_anomaly": 310.2369,
        "meta_ephemeris_type": 0,
        "meta_classification_type": "U",
        "meta_norad_cat_id": 37256,
        "meta_element_set_no": 999,
        "meta_rev_at_epoch": 5483,
        "meta_bstar": 0,
        "meta_mean_motion_dot": -2.25e-06,
        "meta_mean_motion_ddot": 0,
        "tle_line1": "1 37256U 10068A   25337.72402813 -.00000225  00000+0  00000+0 0  9993",
        "tle_line2": "2 37256  47.9043 274.2613 0049233 216.1442 310.2369  1.00288710 54839"
      },
      "geometry": {
        "type": "Point",
        "coordinates": [
          91.76796671785041,
          2.665520672008868
        ]
      }
    },
    {
      "type": "Feature",
      "properties": {
        "norad_id": 37384,
        "name": "BEIDOU-2 IGSO-3 (C08)",
        "group": "beidou",
        "lat": 41.738874603305796,
        "lon": 70.10654738546904,
        "alt_km": 35893.15776859662,
        "timestamp": "2025-12-08T17:43:05.195713+00:00",
        "meta_object_name": "BEIDOU-2 IGSO-3 (C08)",
        "meta_object_id": "2011-013A",
        "meta_epoch": "2025-12-07T14:00:04.361184",
        "meta_mean_motion": 1.00271436,
        "meta_eccentricity": 0.0035334,
        "meta_inclination": 62.1366,
        "meta_ra_of_asc_node": 41.9657,
        "meta_arg_of_pericenter": 187.0582,
        "meta_mean_anomaly": 165.2458,
        "meta_ephemeris_type": 0,
        "meta_classification_type": "U",
        "meta_norad_cat_id": 37384,
        "meta_element_set_no": 999,
        "meta_rev_at_epoch": 5373,
        "meta_bstar": 0,
        "meta_mean_motion_dot": -1.91e-06,
        "meta_mean_motion_ddot": 0,
        "tle_line1": "1 37384U 11013A   25341.58338381 -.00000191  00000+0  00000+0 0  9995",
        "tle_line2": "2 37384  62.1366  41.9657 0035334 187.0582 165.2458  1.00271436 53735"
      },
      "geometry": {
        "type": "Point",
        "coordinates": [
          70.10654738546904,
          41.738874603305796
        ]
      }
    },
    {
      "type": "Feature",
      "properties": {
        "norad_id": 37763,
        "name": "BEIDOU-2 IGSO-4 (C09)",
        "group": "beidou",
        "lat": -54.49683444009918,
        "lon": 79.99426046291585,
        "alt_km": 35312.793596783784,
        "timestamp": "2025-12-08T17:43:05.195727+00:00",
        "meta_object_name": "BEIDOU-2 IGSO-4 (C09)",
        "meta_object_id": "2011-038A",
        "meta_epoch": "2025-12-01T12:32:09.960864",
        "meta_mean_motion": 1.00284074,
        "meta_eccentricity": 0.01487808,
        "meta_inclination": 54.5808,
        "meta_ra_of_asc_node": 167.4476,
        "meta_arg_of_pericenter": 230.2031,
        "meta_mean_anomaly": 315.0387,
        "meta_ephemeris_type": 0,
        "meta_classification_type": "U",
        "meta_norad_cat_id": 37763,
        "meta_element_set_no": 999,
        "meta_rev_at_epoch": 5266,
        "meta_bstar": 0,
        "meta_mean_motion_dot": 1.01e-06,
        "meta_mean_motion_ddot": 0,
        "tle_line1": "1 37763U 11038A   25335.52233751  .00000101  00000+0  00000+0 0  9995",
        "tle_line2": "2 37763  54.5808 167.4476 0148780 230.2031 315.0387  1.00284074 52664"
      },
      "geometry": {
        "type": "Point",
        "coordinates": [
          79.99426046291585,
          -54.49683444009918
        ]
      }
    },
    {
      "type": "Feature",
      "properties": {
        "norad_id": 37948,
        "name": "BEIDOU-2 IGSO-5 (C10)",
        "group": "beidou",
        "lat": 13.827622984471466,
        "lon": 81.11012224429491,
        "alt_km": 35549.03560572115,
        "timestamp": "2025-12-08T17:43:05.195740+00:00",
        "meta_object_name": "BEIDOU-2 IGSO-5 (C10)",
        "meta_object_id": "2011-073A",
        "meta_epoch": "2025-12-07T19:12:14.882400",
        "meta_mean_motion": 1.00291658,
        "meta_eccentricity": 0.01104068,
        "meta_inclination": 48.0298,
        "meta_ra_of_asc_node": 273.9181,
        "meta_arg_of_pericenter": 222.1784,
        "meta_mean_anomaly": 321.4594,
        "meta_ephemeris_type": 0,
        "meta_classification_type": "U",
        "meta_norad_cat_id": 37948,
        "meta_element_set_no": 999,
        "meta_rev_at_epoch": 5121,
        "meta_bstar": 0,
        "meta_mean_motion_dot": -1.91e-06,
        "meta_mean_motion_ddot": 0,
        "tle_line1": "1 37948U 11073A   25341.80017225 -.00000191  00000+0  00000+0 0  9993",
        "tle_line2": "2 37948  48.0298 273.9181 0110406 222.1784 321.4594  1.00291658 51212"
      },
      "geometry": {
        "type": "Point",
        "coordinates": [
          81.11012224429491,
          13.827622984471466
        ]
      }
    },
    {
      "type": "Feature",
      "properties": {
        "norad_id": 38091,
        "name": "BEIDOU-2 G5 (C05)",
        "group": "beidou",
        "lat": -1.4525137553561234,
        "lon": 42.425885115534186,
        "alt_km": 35799.333884570915,
        "timestamp": "2025-12-08T17:43:05.195752+00:00",
        "meta_object_name": "BEIDOU-2 G5 (C05)",
        "meta_object_id": "2012-008A",
        "meta_epoch": "2025-12-08T03:36:39.993696",
        "meta_mean_motion": 1.00274017,
        "meta_eccentricity": 0.00125312,
        "meta_inclination": 3.0977,
        "meta_ra_of_asc_node": 70.7225,
        "meta_arg_of_pericenter": 226.8008,
        "meta_mean_anomaly": 252.5412,
        "meta_ephemeris_type": 0,
        "meta_classification_type": "U",
        "meta_norad_cat_id": 38091,
        "meta_element_set_no": 999,
        "meta_rev_at_epoch": 5045,
        "meta_bstar": 0,
        "meta_mean_motion_dot": 5.8e-07,
        "meta_mean_motion_ddot": 0,
        "tle_line1": "1 38091U 12008A   25342.15046289  .00000058  00000+0  00000+0 0  9994",
        "tle_line2": "2 38091   3.0977  70.7225 0012531 226.8008 252.5412  1.00274017 50457"
      },
      "geometry": {
        "type": "Point",
        "coordinates": [
          42.425885115534186,
          -1.4525137553561234
        ]
      }
    }
  ]
}